ONEWEB-0291             
1 49081U 21075G   25217.57255398  .00000009  00000+0 -10402-4 0  9998
2 49081  87.9036  68.6604 0001388  88.4199 271.7092 13.17650847192042
ONEWEB-0293             
1 49082U 21075H   25217.52193980  .00000031  00000+0  46638-4 0  9996
2 49082  87.9028  68.7037 0001659  81.1144 279.0175 13.17648007192066
ONEWEB-0294             
1 49083U 21075J   25217.47884802 -.00000044  00000+0 -15705-3 0  9997
2 49083  87.8851  53.4112 0001375  74.4539 285.6741 13.12440527193169
ONEWEB-0295             
1 49084U 21075K   25217.52109014  .00000009  00000+0 -93881-5 0  9992
2 49084  87.9039  68.7042 0001433  91.5650 268.5646 13.17649195192024
ONEWEB-0296             
1 49085U 21075L   25217.45938157  .00000450  00000+0  12160-2 0  9990
2 49085  87.8845  53.4231 0001180  91.2830 268.8434 13.12443219193164
ONEWEB-0297             
1 49086U 21075M   25217.49019901 -.00000537  00000+0 -15285-2 0  9991
2 49086  87.8855  53.4541 0001686  89.1146 271.0176 13.12441164193770
ONEWEB-0298             
1 49087U 21075N   25217.52544403  .00000047  00000+0  87319-4 0  9999
2 49087  87.9029  68.7013 0001809  89.8030 270.3308 13.17649916192053
ONEWEB-0299             
1 49088U 21075P   25217.52698889  .00000059  00000+0  11915-3 0  9999
2 49088  87.9038  68.6535 0001766  92.0171 268.1163 13.17650496192033
